{"type": "FeatureCollection", "features": [ {"type": "Feature", "properties": {"norad_id": 38124, "name": "FENGYUN 1C DEB", "group": "fengyun-1c-debris", "lat": -27.727198352567214, "lon": -59.871573419691046, "alt_km": 852.573531022912, "timestamp": "2025-12-08T10:52:03.237329+00:00", "meta": {"OBJECT_NAME": "FENGYUN 1C DEB", "OBJECT_ID": "1999-025EPV", "EPOCH": "2025-11-17T02:51:17.993664", "MEAN_MOTION": 13.40908773, "ECCENTRICITY": 0.03570409, "INCLINATION": 97.805, "RA_OF_ASC_NODE": 279.4801, "ARG_OF_PERICENTER": 12.4947, "MEAN_ANOMALY": 348.4759, "EPHEMERIS_TYPE": 0, "CLASSIFICATION_TYPE": "U", "NORAD_CAT_ID": 38124, "ELEMENT_SET_NO": 999, "REV_AT_EPOCH": 54238, "BSTAR": 0.00079426358, "MEAN_MOTION_DOT": 6.08e-06, "MEAN_MOTION_DDOT": 0}, "tle": {"line1": "1 38124U 99025EPV 25321.11895826  .00000608  00000+0  79426-3 0  9990", "line2": "2 38124  97.8050 279.4801 0357040  12.4947 348.4759 13.40908773542380"}}, "geometry": {"type": "Point", "coordinates": [-59.871573419691046, -27.727198352567214]}}, {"type": "Feature", "properties": {"norad_id": 38130, "name": "FENGYUN 1C DEB", "group": "fengyun-1c-debris", "lat": -9.29124222796497, "lon": -146.85935044683228, "alt_km": 871.7049527628969, "timestamp": "2025-12-08T10:52:03.237339+00:00", "meta": {"OBJECT_NAME": "FENGYUN 1C DEB", "OBJECT_ID": "1999-025EQB", "EPOCH": "2025-11-28T09:19:02.490528", "MEAN_MOTION": 13.7720595, "ECCENTRICITY": 0.02085156, "INCLINATION": 98.6035, "RA_OF_ASC_NODE": 25.4413, "ARG_OF_PERICENTER": 263.5047, "MEAN_ANOMALY": 94.2329, "EPHEMERIS_TYPE": 0, "CLASSIFICATION_TYPE": "U", "NORAD_CAT_ID": 38130, "ELEMENT_SET_NO": 999, "REV_AT_EPOCH": 69085, "BSTAR": 0.0016964005, "MEAN_MOTION_DOT": 1.933e-05, "MEAN_MOTION_DDOT": 0}, "tle": {"line1": "1 38130U 99025EQB 25332.38822327  .00001933  00000+0  16964-2 0  9993", "line2": "2 38130  98.6035  25.4413 0208515 263.5047  94.2329 13.77205950690851"}}, "geometry": {"type": "Point", "coordinates": [-146.85935044683228, -9.29124222796497]}}, {"type": "Feature", "properties": {"norad_id": 38135, "name": "FENGYUN 1C DEB", "group": "fengyun-1c-debris", "lat": -5.608230493716371, "lon": -141.57005581126805, "alt_km": 840.4951332378414, "timestamp": "2025-12-08T10:52:03.237349+00:00", "meta": {"OBJECT_NAME": "FENGYUN 1C DEB", "OBJECT_ID": "1999-025EQG", "EPOCH": "2025-12-04T09:59:10.811040", "MEAN_MOTION": 14.2524882, "ECCENTRICITY": 0.0223375, "INCLINATION": 98.6606, "RA_OF_ASC_NODE": 35.2993, "ARG_OF_PERICENTER": 95.5388, "MEAN_ANOMALY": 267.1312, "EPHEMERIS_TYPE": 0, "CLASSIFICATION_TYPE": "U", "NORAD_CAT_ID": 38135, "ELEMENT_SET_NO": 999, "REV_AT_EPOCH": 60922, "BSTAR": 0.00083169, "MEAN_MOTION_DOT": 2.494e-05, "MEAN_MOTION_DDOT": 0}, "tle": {"line1": "1 38135U 99025EQG 25338.41609735  .00002494  00000+0  83169-3 0  9999", "line2": "2 38135  98.6606  35.2993 0223375  95.5388 267.1312 14.25248820609225"}}, "geometry": {"type": "Point", "coordinates": [-141.57005581126805, -5.608230493716371]}}, {"type": "Feature", "properties": {"norad_id": 38137, "name": "FENGYUN 1C DEB", "group": "fengyun-1c-debris", "lat": 74.8625343214151, "lon": -119.4760145147963, "alt_km": 833.8224136373046, "timestamp": "2025-12-08T10:52:03.237359+00:00", "meta": {"OBJECT_NAME": "FENGYUN 1C DEB", "OBJECT_ID": "1999-025EQJ", "EPOCH": "2025-12-07T08:46:13.268640", "MEAN_MOTION": 14.06151833, "ECCENTRICITY": 0.00466652, "INCLINATION": 98.8654, "RA_OF_ASC_NODE": 24.2239, "ARG_OF_PERICENTER": 84.2055, "MEAN_ANOMALY": 276.4431, "EPHEMERIS_TYPE": 0, "CLASSIFICATION_TYPE": "U", "NORAD_CAT_ID": 38137, "ELEMENT_SET_NO": 999, "REV_AT_EPOCH": 63633, "BSTAR": 0.00038467411, "MEAN_MOTION_DOT": 5.96e-06, "MEAN_MOTION_DDOT": 0}, "tle": {"line1": "1 38137U 99025EQJ 25341.36543135  .00000596  00000+0  38467-3 0  9992", "line2": "2 38137  98.8654  24.2239 0046665  84.2055 276.4431 14.06151833636337"}}, "geometry": {"type": "Point", "coordinates": [-119.4760145147963, 74.8625343214151]}}, {"type": "Feature", "properties": {"norad_id": 38143, "name": "FENGYUN 1C DEB", "group": "fengyun-1c-debris", "lat": -67.5460292410384, "lon": -164.2430683507225, "alt_km": 845.3294087646036, "timestamp": "2025-12-08T10:52:03.237369+00:00", "meta": {"OBJECT_NAME": "FENGYUN 1C DEB", "OBJECT_ID": "1999-025EQQ", "EPOCH": "2025-12-02T22:04:03.833184", "MEAN_MOTION": 14.04865193, "ECCENTRICITY": 0.00557173, "INCLINATION": 99.0286, "RA_OF_ASC_NODE": 32.8796, "ARG_OF_PERICENTER": 248.4749, "MEAN_ANOMALY": 111.0473, "EPHEMERIS_TYPE": 0, "CLASSIFICATION_TYPE": "U", "NORAD_CAT_ID": 38143, "ELEMENT_SET_NO": 999, "REV_AT_EPOCH": 60145, "BSTAR": 0.00072272115, "MEAN_MOTION_DOT": 1.132e-05, "MEAN_MOTION_DDOT": 0}, "tle": {"line1": "1 38143U 99025EQQ 25336.91948881  .00001132  00000+0  72272-3 0  9990", "line2": "2 38143  99.0286  32.8796 0055717 248.4749 111.0473 14.04865193601457"}}, "geometry": {"type": "Point", "coordinates": [-164.2430683507225, -67.5460292410384]}}, {"type": "Feature", "properties": {"norad_id": 38144, "name": "FENGYUN 1C DEB", "group": "fengyun-1c-debris", "lat": -55.056400636066094, "lon": -25.788800671751744, "alt_km": 864.219229384169, "timestamp": "2025-12-08T10:52:03.237379+00:00", "meta": {"OBJECT_NAME": "FENGYUN 1C DEB", "OBJECT_ID": "1999-025EQR", "EPOCH": "2025-12-06T18:50:18.188736", "MEAN_MOTION": 13.58996944, "ECCENTRICITY": 0.02905665, "INCLINATION": 98.9685, "RA_OF_ASC_NODE": 165.7451, "ARG_OF_PERICENTER": 207.0505, "MEAN_ANOMALY": 151.5239, "EPHEMERIS_TYPE": 0, "CLASSIFICATION_TYPE": "U", "NORAD_CAT_ID": 38144, "ELEMENT_SET_NO": 999, "REV_AT_EPOCH": 60956, "BSTAR": 0.0028636458, "MEAN_MOTION_DOT": 2.734e-05, "MEAN_MOTION_DDOT": 0}, "tle": {"line1": "1 38144U 99025EQR 25340.78493274  .00002734  00000+0  28636-2 0  9995", "line2": "2 38144  98.9685 165.7451 0290566 207.0505 151.5239 13.58996944609563"}}, "geometry": {"type": "Point", "coordinates": [-25.788800671751744, -55.056400636066094]}}, {"type": "Feature", "properties": {"norad_id": 38146, "name": "FENGYUN 1C DEB", "group": "fengyun-1c-debris", "lat": 50.50871594640944, "lon": 50.652966846885214, "alt_km": 626.5938877833951, "timestamp": "2025-12-08T10:52:03.237389+00:00", "meta": {"OBJECT_NAME": "FENGYUN 1C DEB", "OBJECT_ID": "1999-025EQT", "EPOCH": "2025-12-03T10:45:50.404320", "MEAN_MOTION": 14.59033464, "ECCENTRICITY": 0.02030621, "INCLINATION": 99.485, "RA_OF_ASC_NODE": 56.6441, "ARG_OF_PERICENTER": 130.793, "MEAN_ANOMALY": 291.7125, "EPHEMERIS_TYPE": 0, "CLASSIFICATION_TYPE": "U", "NORAD_CAT_ID": 38146, "ELEMENT_SET_NO": 999, "REV_AT_EPOCH": 31744, "BSTAR": 0.0015249301, "MEAN_MOTION_DOT": 9.498e-05, "MEAN_MOTION_DDOT": 0}, "tle": {"line1": "1 38146U 99025EQT 25337.44850005  .00009498  00000+0  15249-2 0  9995", "line2": "2 38146  99.4850  56.6441 0203062 130.7930 291.7125 14.59033464317446"}}, "geometry": {"type": "Point", "coordinates": [50.652966846885214, 50.50871594640944]}}, {"type": "Feature", "properties": {"norad_id": 38147, "name": "FENGYUN 1C DEB", "group": "fengyun-1c-debris", "lat": 51.1858437041731, "lon": -13.999463283669659, "alt_km": 815.1710272240289, "timestamp": "2025-12-08T10:52:03.237399+00:00", "meta": {"OBJECT_NAME": "FENGYUN 1C DEB", "OBJECT_ID": "1999-025EQU", "EPOCH": "2025-11-29T07:18:26.920800", "MEAN_MOTION": 14.23385127, "ECCENTRICITY": 0.0050737, "INCLINATION": 98.5592, "RA_OF_ASC_NODE": 347.8933, "ARG_OF_PERICENTER": 338.7731, "MEAN_ANOMALY": 21.1342, "EPHEMERIS_TYPE": 0, "CLASSIFICATION_TYPE": "U", "NORAD_CAT_ID": 38147, "ELEMENT_SET_NO": 999, "REV_AT_EPOCH": 60196, "BSTAR": 0.00059773367, "MEAN_MOTION_DOT": 1.331e-05, "MEAN_MOTION_DDOT": 0}, "tle": {"line1": "1 38147U 99025EQU 25333.30447825  .00001331  00000+0  59773-3 0  9998", "line2": "2 38147  98.5592 347.8933 0050737 338.7731  21.1342 14.23385127601965"}}, "geometry": {"type": "Point", "coordinates": [-13.999463283669659, 51.1858437041731]}}, {"type": "Feature", "properties": {"norad_id": 38149, "name": "FENGYUN 1C DEB", "group": "fengyun-1c-debris", "lat": 24.515749396473716, "lon": 158.7298814704814, "alt_km": 751.8057814194699, "timestamp": "2025-12-08T10:52:03.237409+00:00", "meta": {"OBJECT_NAME": "FENGYUN 1C DEB", "OBJECT_ID": "1999-025EQW", "EPOCH": "2025-12-07T17:18:01.960128", "MEAN_MOTION": 14.25910713, "ECCENTRICITY": 0.00777044, "INCLINATION": 98.3566, "RA_OF_ASC_NODE": 334.1881, "ARG_OF_PERICENTER": 175.9559, "MEAN_ANOMALY": 184.2267, "EPHEMERIS_TYPE": 0, "CLASSIFICATION_TYPE": "U", "NORAD_CAT_ID": 38149, "ELEMENT_SET_NO": 999, "REV_AT_EPOCH": 70416, "BSTAR": 0.00036135678, "MEAN_MOTION_DOT": 8.47e-06, "MEAN_MOTION_DDOT": 0}, "tle": {"line1": "1 38149U 99025EQW 25341.72085602  .00000847  00000+0  36136-3 0  9995", "line2": "2 38149  98.3566 334.1881 0077704 175.9559 184.2267 14.25910713704169"}}, "geometry": {"type": "Point", "coordinates": [158.7298814704814, 24.515749396473716]}}, {"type": "Feature", "properties": {"norad_id": 38155, "name": "FENGYUN 1C DEB", "group": "fengyun-1c-debris", "lat": 71.59387300810836, "lon": 93.52027594522939, "alt_km": 744.6708326029948, "timestamp": "2025-12-08T10:52:03.237419+00:00", "meta": {"OBJECT_NAME": "FENGYUN 1C DEB", "OBJECT_ID": "1999-025ERC", "EPOCH": "2025-12-02T22:55:17.920128", "MEAN_MOTION": 14.24904344, "ECCENTRICITY": 0.0095238, "INCLINATION": 98.4544, "RA_OF_ASC_NODE": 241.676, "ARG_OF_PERICENTER": 156.473, "MEAN_ANOMALY": 204.085, "EPHEMERIS_TYPE": 0, "CLASSIFICATION_TYPE": "U", "NORAD_CAT_ID": 38155, "ELEMENT_SET_NO": 999, "REV_AT_EPOCH": 63636, "BSTAR": 0.0036122, "MEAN_MOTION_DOT": 8.816e-05, "MEAN_MOTION_DDOT": 0}, "tle": {"line1": "1 38155U 99025ERC 25336.95506852  .00008816  00000+0  36122-2 0  9994", "line2": "2 38155  98.4544 241.6760 0095238 156.4730 204.0850 14.24904344636365"}}, "geometry": {"type": "Point", "coordinates": [93.52027594522939, 71.59387300810836]}}]}